CCSDS_OMM_VERS,COMMENT,CREATION_DATE,ORIGINATOR,OBJECT_NAME,OBJECT_ID,CENTER_NAME,REF_FRAME,TIME_SYSTEM,MEAN_ELEMENT_THEORY,EPOCH,MEAN_MOTION,ECCENTRICITY,INCLINATION,RA_OF_ASC_NODE,ARG_OF_PERICENTER,MEAN_ANOMALY,EPHEMERIS_TYPE,CLASSIFICATION_TYPE,NORAD_CAT_ID,ELEMENT_SET_NO,REV_AT_EPOCH,BSTAR,MEAN_MOTION_DOT,MEAN_MOTION_DDOT,SEMIMAJOR_AXIS,PERIOD,APOAPSIS,PERIAPSIS,OBJECT_TYPE,RCS_SIZE,COUNTRY_CODE,LAUNCH_DATE,SITE,DECAY_DATE,FILE,GP_ID,TLE_LINE0,TLE_LINE1,TLE_LINE2
3.0,GENERATED VIA SPACE-TRACK.ORG API,2023-03-11T23:06:13,18 SPCS,CZ-6A DEB,2022-151PU,EARTH,TEME,UTC,SGP4,2023-03-01T23:57:46.065312,14.5017138,0.0096654,98.5707,69.0894,5.8852,354.3453,0,U,54883,999,1292,0.055004,0.00234529,0.0,7103.226,99.299,793.746,656.435,DEBRIS,SMALL,PRC,2022-11-11,TSC,2023-05-31,3857758,227864854,0 CZ-6A DEB,1 54883U 22151PU  23060.99844983  .00234529  00000-0  55004-1 0  9994,2 54883  98.5707  69.0894 0096654   5.8852 354.3453 14.50171380 12921
3.0,GENERATED VIA SPACE-TRACK.ORG API,2004-08-16T23:15:56,18 SPCS,SL-11 R/B,1982-010B,EARTH,TEME,UTC,SGP4,1982-02-11T09:57:24.661727,16.25312569,0.0147781,64.9983,192.1709,55.0684,306.4285,0,U,13062,999,6,0.00036813,0.34512881,3.1152e-05,6583.308,88.598,302.462,107.884,ROCKET BODY,,,,,1982-02-11,34345,12892260,0 SL-11 R/B,1 13062U 82010  B 82042.41486877  .34512881 +31152-4 +36813-3 0  9996,2 13062 064.9983 192.1709 0147781 055.0684 306.4285 16.25312569000062
3.0,GENERATED VIA SPACE-TRACK.ORG API,2004-08-15T23:35:50,18 SPCS,OPS 4827,1967-076A,EARTH,TEME,UTC,SGP4,1967-09-01T11:14:46.445568,16.42794533,0.002692,79.9661,311.587,84.9024,275.5216,0,U,2910,999,395,0.0,0.08105494,0.0,6536.52,87.655,175.981,140.789,PAYLOAD,,,,,1967-09-01,33915,8756976,0 OPS 4827,1 02910U 67076  A 67244.46859312  .08105494 +00000-0 +00000-0 0  9990,2 02910 079.9661 311.5870 0026920 084.9024 275.5216 16.42794533003952
3.0,GENERATED VIA SPACE-TRACK.ORG API,2024-10-07T18:45:50,18 SPCS,IRIDIUM 33 DEB,1997-051UE,EARTH,TEME,UTC,SGP4,2024-10-07T10:02:57.693984,14.94207047,0.004802,86.4023,329.4257,255.9504,103.6384,0,U,35921,999,59093,0.050791,0.00588936,0.0,6962.972,96.372,618.273,551.401,DEBRIS,SMALL,US,1997-09-14,TTMTR,2024-11-14,4517222,269953308,0 IRIDIUM 33 DEB,1 35921U 97051UE  24281.41872331  .00588936  00000-0  50791-1 0  9990,2 35921  86.4023 329.4257 0048020 255.9504 103.6384 14.94207047590930
3.0,GENERATED VIA SPACE-TRACK.ORG API,2015-05-31T15:20:41,18 SPCS,FENGYUN 1C DEB,1999-025BBZ,EARTH,TEME,UTC,SGP4,2015-05-31T12:19:58.126944,16.12749637,0.0008098,98.5667,49.1314,2.7673,121.5917,0,U,30983,999,44451,0.0027368,0.02573691,0.010201,6617.447,89.288,244.671,233.954,DEBRIS,SMALL,PRC,1999-05-10,TSC,2015-05-31,1879393,99301212,0 FENGYUN 1C DEB,1 30983U 99025BBZ 15151.51386721  .02573691  10201-1  27368-2 0  9990,2 30983 098.5667 049.1314 0008098 002.7673 121.5917 16.12749637444518
3.0,GENERATED VIA SPACE-TRACK.ORG API,2004-05-28T18:56:47,18 SPCS,PSLV DEB,2001-049JN,EARTH,TEME,UTC,SGP4,2002-03-19T03:44:32.246591,15.92618494,0.0016747,97.7436,157.454,334.985,25.0609,0,U,27290,999,1054,0.031529,0.08152579,0.11239,6673.099,90.417,306.14,283.789,DEBRIS,SMALL,IND,2001-10-22,SRI,2002-03-19,6580,2371472,0 PSLV DEB,1 27290U 01049JN  02078.15592878 +.08152579 +11239-0 +31529-1 0  9990,2 27290 097.7436 157.4540 0016747 334.9850 025.0609 15.92618494010542
3.0,GENERATED VIA SPACE-TRACK.ORG API,2015-06-16T18:30:49,18 SPCS,COSMOS 2251 DEB,1993-036AKT,EARTH,TEME,UTC,SGP4,2013-12-20T09:11:09.961152,14.67834727,0.0043492,73.9569,246.6091,107.893,255.4606,0,U,35449,999,25049,0.0035162,0.00020397,0.0,7046.125,98.103,698.635,637.345,DEBRIS,SMALL,CIS,1993-06-16,PKMTR,2016-01-01,1885698,99429932,0 COSMOS 2251 DEB,1 35449U 93036AKT 13354.38275418 +.00020397 +00000-0 +35162-2 0  9990,2 35449 073.9569 246.6091 0043492 107.8930 255.4606 14.67834727250491
3.0,GENERATED VIA SPACE-TRACK.ORG API,2005-04-22T16:12:26,18 SPCS,COSMOS 477 DEB,1972-013F,EARTH,TEME,UTC,SGP4,1972-03-16T03:30:34.731648,16.28362838,0.002218,72.8367,286.8154,33.2278,327.0302,0,U,5883,999,190,0.0,0.05859783,0.0,6575.084,88.432,211.532,182.365,DEBRIS,,,,,1972-03-17,128520,41832423,0 COSMOS 477 DEB,1 05883U 72013  F 72076.14623532  .05859783 +00000-0 +00000-0 0  9990,2 05883 072.8367 286.8154 0022180 033.2278 327.0302 16.28362838001905
3.0,GENERATED VIA SPACE-TRACK.ORG API,2004-08-15T23:39:35,18 SPCS,SL-6 R/B(1),1975-029B,EARTH,TEME,UTC,SGP4,1975-06-18T20:57:04.368672,16.28459767,0.0035672,62.831,171.3127,127.7379,232.6974,0,U,7739,999,1031,0.00066527,0.02876523,0.01254,6574.823,88.427,220.142,173.234,ROCKET BODY,,,,,1975-06-20,33990,9519597,0 SL-6 R/B(1),1 07739U 75029  B 75169.87296723  .02876523 +12540-1 +66527-3 0  9996,2 07739 062.8310 171.3127 0035672 127.7379 232.6974 16.28459767010312
3.0,GENERATED VIA SPACE-TRACK.ORG API,2019-09-06T20:40:12,18 SPCS,MICROSAT-R DEB,2019-006DS,EARTH,TEME,UTC,SGP4,2019-08-30T14:10:12.462528,15.99579957,0.0078613,95.1587,99.0286,222.84,106.1974,0,U,44468,999,670,0.0084181,0.04559215,0.035542,6653.72,90.023,327.892,223.278,DEBRIS,SMALL,IND,2019-01-24,SRI,2019-08-31,2594391,138640522,0 MICROSAT-R DEB,1 44468U 19006DS  19242.59042202  .04559215  35542-1  84181-2 0  9999,2 44468  95.1587  99.0286 0078613 222.8400 106.1974 15.99579957  6707
3.0,GENERATED VIA SPACE-TRACK.ORG API,2023-02-12T02:46:41,18 SPCS,COSMOS 1408 DEB,1982-092BWY,EARTH,TEME,UTC,SGP4,2023-02-11T08:59:30.969600,16.08662682,0.0007888,82.5327,22.4056,179.8198,180.3089,0,U,52240,999,5331,0.0038692,0.02758556,0.011266,6628.651,89.515,255.745,245.288,DEBRIS,SMALL,CIS,1982-09-16,PKMTR,2023-02-11,3786577,225184227,0 COSMOS 1408 DEB,1 52240U 82092BWY 23042.37466400  .02758556  11266-1  38692-2 0  9990,2 52240  82.5327  22.4056 0007888 179.8198 180.3089 16.08662682 53311
3.0,GENERATED VIA SPACE-TRACK.ORG API,2004-08-17T15:12:54,18 SPCS,SCOUT G-1 DEB,1992-038D,EARTH,TEME,UTC,SGP4,1998-01-09T17:52:38.337024,16.19056926,0.0011544,81.6296,114.3806,316.5464,43.5076,0,U,22848,999,30732,0.0029069,0.05146196,-1.0535e-06,6600.254,88.94,229.739,214.5,DEBRIS,SMALL,US,1992-07-03,AFWTR,1998-01-09,35307,26652358,0 SCOUT G-1 DEB,1 22848U 92038D   98009.74488816  .05146196 -10535-5  29069-2 0  9998,2 22848 081.6296 114.3806 0011544 316.5464 043.5076 16.19056926307320
3.0,GENERATED VIA SPACE-TRACK.ORG API,2008-05-23T10:44:23,18 SPCS,USA 193 DEB,2006-057FL,EARTH,TEME,UTC,SGP4,2008-05-21T20:37:30.952127,16.18760056,0.0065797,57.6354,345.5891,208.4505,165.457,0,U,32685,999,1349,0.00086265,0.02442949,1.068e-05,6601.061,88.956,266.359,179.493,DEBRIS,SMALL,US,2006-12-14,AFWTR,2008-05-21,556360,66406334,0 USA 193 DEB,1 32685U 06057FL  08142.85938602  .02442949  10680-4  86265-3 0  9991,2 32685 057.6354 345.5891 0065797 208.4505 165.4570 16.18760056 13494
3.0,GENERATED VIA SPACE-TRACK.ORG API,2004-08-15T23:40:50,18 SPCS,COSMOS 936,1977-074A,EARTH,TEME,UTC,SGP4,1977-08-20T01:17:16.958399,15.90956306,0.0125927,62.8026,48.7403,113.2218,248.7005,0,U,10172,999,262,0.0,0.0009188,0.0,6677.746,90.511,383.702,215.52,PAYLOAD,,,,,1977-08-22,34015,10109027,0 COSMOS 936,1 10172U 77074  A 77232.05366850  .00091880 +00000-0 +00000-0 0  9996,2 10172 062.8026 048.7403 0125927 113.2218 248.7005 15.90956306002627
3.0,GENERATED VIA SPACE-TRACK.ORG API,2005-05-02T23:37:16,18 SPCS,ARIANE 1 DEB,1986-019CH,EARTH,TEME,UTC,SGP4,1988-12-16T03:43:40.856735,14.32120418,0.0015271,98.6256,59.9796,245.689,114.362,0,U,17235,999,10871,0.010977,0.0002954,0.0,7162.793,100.55,795.596,773.72,DEBRIS,,,,,1989-02-02,130984,43144866,0 ARIANE 1 DEB,1 17235U 86019 CH 88351.15533399  .00029540 +00000-0 +10977-1 0  9990,2 17235 098.6256 059.9796 0015271 245.6890 114.3620 14.32120418108711
3.0,GENERATED VIA SPACE-TRACK.ORG API,2022-06-19T21:06:18,18 SPCS,COSMOS 1408 DEB,1982-092ADL,EARTH,TEME,UTC,SGP4,2022-06-17T02:01:46.553376,15.65894562,0.0088878,82.9812,301.009,128.4632,232.4648,0,U,50398,999,3081,0.01451,0.0205243,0.0,6748.804,91.96,430.651,310.687,DEBRIS,SMALL,CIS,1982-09-16,PKMTR,2022-06-22,3497101,206421908,0 COSMOS 1408 DEB,1 50398U 82092ADL 22168.08456659  .02052430  00000-0  14510-1 0  9996,2 50398  82.9812 301.0090 0088878 128.4632 232.4648 15.65894562 30817
3.0,GENERATED VIA SPACE-TRACK.ORG API,2004-08-16T23:18:11,18 SPCS,COSMOS 1592,1984-094A,EARTH,TEME,UTC,SGP4,1984-09-17T06:30:40.882463,15.9793309,0.0082931,72.8762,111.069,56.7417,304.2118,0,U,15257,999,206,2.082e-05,0.00013763,0.0,6658.295,90.116,335.378,224.942,PAYLOAD,,,,,1984-09-18,34390,13978739,0 COSMOS 1592,1 15257U 84094  A 84261.27130651  .00013763 +00000-0 +20820-4 0  9997,2 15257 072.8762 111.0690 0082931 056.7417 304.2118 15.97933090002068
3.0,GENERATED VIA SPACE-TRACK.ORG API,2020-11-16T23:16:22,18 SPCS,H-2A DEB,2018-084AQ,EARTH,TEME,UTC,SGP4,2020-11-07T19:28:20.703936,15.63819432,0.0036489,97.76,69.9596,320.0513,39.8061,0,U,46203,999,1323,0.058564,0.06749889,0.0,6754.773,92.082,401.285,351.99,DEBRIS,SMALL,JPN,2018-10-29,TNSTA,2020-11-09,2876476,165600125,0 H-2A DEB,1 46203U 18084AQ  20312.81135074  .06749889  00000-0  58564-1 0  9993,2 46203  97.7600  69.9596 0036489 320.0513  39.8061 15.63819432 13232
3.0,GENERATED VIA SPACE-TRACK.ORG API,2004-05-28T19:07:53,18 SPCS,COSMOS 1985 DEB,1988-113H,EARTH,TEME,UTC,SGP4,2002-08-07T17:45:40.055616,16.57692817,0.0008655,73.4903,4.2787,238.3945,121.659,0,U,19764,999,76362,9.1722e-05,0.23625884,2.4344e-06,6497.297,86.867,124.785,113.539,DEBRIS,LARGE,CIS,1988-12-23,PKMTR,2002-08-07,6802,3360013,0 COSMOS 1985 DEB,1 19764U 88113H   02219.74004694 +.23625884 +24344-5 +91722-4 0  9991,2 19764 073.4903 004.2787 0008655 238.3945 121.6590 16.57692817763621
3.0,GENERATED VIA SPACE-TRACK.ORG API,2004-08-15T23:44:02,18 SPCS,COSMOS 1070,1979-001A,EARTH,TEME,UTC,SGP4,1979-01-19T13:27:51.657984,16.11770439,0.0062531,62.804,253.9731,87.606,273.2204,0,U,11229,999,128,0.0,0.00186884,0.0,6620.132,89.342,283.393,200.6,PAYLOAD,,,,,1979-01-20,34079,11010499,0 COSMOS 1070,1 11229U 79001  A 79019.56101456  .00186884 +00000-0 +00000-0 0  9991,2 11229 062.8040 253.9731 0062531 087.6060 273.2204 16.11770439001281
